[{"OBJECT_NAME":"STARLINK-33746","OBJECT_ID":"2025-069P","EPOCH":"2026-03-09T11:42:13.804128","MEAN_MOTION":15.30176492,"ECCENTRICITY":0.00013479,"INCLINATION":53.1577,"RA_OF_ASC_NODE":143.4231,"ARG_OF_PERICENTER":64.1172,"MEAN_ANOMALY":295.9968,"EPHEMERIS_TYPE":0,"CLASSIFICATION_TYPE":"U","NORAD_CAT_ID":63446,"ELEMENT_SET_NO":999,"REV_AT_EPOCH":5332,"BSTAR":0.0012136882,"MEAN_MOTION_DOT":0.00035734,"MEAN_MOTION_DDOT":0},{"OBJECT_NAME":"OBJECT F","OBJECT_ID":"2021-022F","EPOCH":"2026-03-09T23:37:37.165152","MEAN_MOTION":15.31317672,"ECCENTRICITY":0.00120882,"INCLINATION":97.3982,"RA_OF_ASC_NODE":329.8375,"ARG_OF_PERICENTER":85.9268,"MEAN_ANOMALY":274.3355,"EPHEMERIS_TYPE":0,"CLASSIFICATION_TYPE":"U","NORAD_CAT_ID":47937,"ELEMENT_SET_NO":999,"REV_AT_EPOCH":27452,"BSTAR":0.00038690553,"MEAN_MOTION_DOT":0.00011656,"MEAN_MOTION_DDOT":0}]
